{"type": "FeatureCollection", "features": [ {"type": "Feature", "properties": {"norad_id": 17070, "name": "POLAR BEAR", "group": "nnss", "lat": -64.23555309824657, "lon": -177.60588721775332, "alt_km": 1011.7560827202615, "timestamp": "2025-12-27T08:36:18.650846+00:00", "meta": {"OBJECT_NAME": "POLAR BEAR", "OBJECT_ID": "1986-088A", "EPOCH": "2025-12-27T02:30:40.033728", "MEAN_MOTION": 13.75253821, "ECCENTRICITY": 0.0041249, "INCLINATION": 89.617, "RA_OF_ASC_NODE": 183.1984, "ARG_OF_PERICENTER": 77.9849, "MEAN_ANOMALY": 41.7619, "EPHEMERIS_TYPE": 0, "CLASSIFICATION_TYPE": "U", "NORAD_CAT_ID": 17070, "ELEMENT_SET_NO": 999, "REV_AT_EPOCH": 96176, "BSTAR": 0.00011818, "MEAN_MOTION_DOT": 1.25e-06, "MEAN_MOTION_DDOT": 0}, "tle": {"line1": "1 17070U 86088A   25361.10463002  .00000125  00000+0  11818-3 0  9997", "line2": "2 17070  89.6170 183.1984 0041249  77.9849  41.7619 13.75253821961760"}}, "geometry": {"type": "Point", "coordinates": [-177.60588721775332, -64.23555309824657]}}, {"type": "Feature", "properties": {"norad_id": 18361, "name": "OSCAR 27", "group": "nnss", "lat": 38.047839511067394, "lon": 79.52631471387254, "alt_km": 1150.6284983614714, "timestamp": "2025-12-27T08:36:18.650886+00:00", "meta": {"OBJECT_NAME": "OSCAR 27", "OBJECT_ID": "1987-080A", "EPOCH": "2025-12-27T03:03:22.132800", "MEAN_MOTION": 13.44909733, "ECCENTRICITY": 0.0104138, "INCLINATION": 90.3734, "RA_OF_ASC_NODE": 79.8101, "ARG_OF_PERICENTER": 182.4368, "MEAN_ANOMALY": 177.6286, "EPHEMERIS_TYPE": 0, "CLASSIFICATION_TYPE": "U", "NORAD_CAT_ID": 18361, "ELEMENT_SET_NO": 999, "REV_AT_EPOCH": 87750, "BSTAR": 0.00017457, "MEAN_MOTION_DOT": 1.14e-06, "MEAN_MOTION_DDOT": 0}, "tle": {"line1": "1 18361U 87080A   25361.12733950  .00000114  00000+0  17457-3 0  9991", "line2": "2 18361  90.3734  79.8101 0104138 182.4368 177.6286 13.44909733877509"}}, "geometry": {"type": "Point", "coordinates": [79.52631471387254, 38.047839511067394]}}, {"type": "Feature", "properties": {"norad_id": 18362, "name": "OSCAR 29", "group": "nnss", "lat": 26.806003147194975, "lon": 80.08949782633054, "alt_km": 1170.0804547639927, "timestamp": "2025-12-27T08:36:18.650913+00:00", "meta": {"OBJECT_NAME": "OSCAR 29", "OBJECT_ID": "1987-080B", "EPOCH": "2025-12-27T03:11:36.452256", "MEAN_MOTION": 13.44451165, "ECCENTRICITY": 0.0104937, "INCLINATION": 90.3747, "RA_OF_ASC_NODE": 80.2705, "ARG_OF_PERICENTER": 205.5396, "MEAN_ANOMALY": 170.683, "EPHEMERIS_TYPE": 0, "CLASSIFICATION_TYPE": "U", "NORAD_CAT_ID": 18362, "ELEMENT_SET_NO": 999, "REV_AT_EPOCH": 87703, "BSTAR": 0.00015592, "MEAN_MOTION_DOT": 1.02e-06, "MEAN_MOTION_DDOT": 0}, "tle": {"line1": "1 18362U 87080B   25361.13306079  .00000102  00000+0  15592-3 0  9996", "line2": "2 18362  90.3747  80.2705 0104937 205.5396 170.6830 13.44451165877032"}}, "geometry": {"type": "Point", "coordinates": [80.08949782633054, 26.806003147194975]}}, {"type": "Feature", "properties": {"norad_id": 19070, "name": "OSCAR 23", "group": "nnss", "lat": 4.943340985913207, "lon": 16.81732326792166, "alt_km": 1256.3121544675296, "timestamp": "2025-12-27T08:36:18.650934+00:00", "meta": {"OBJECT_NAME": "OSCAR 23", "OBJECT_ID": "1988-033A", "EPOCH": "2025-12-27T01:28:05.869056", "MEAN_MOTION": 13.27789432, "ECCENTRICITY": 0.0190612, "INCLINATION": 90.3203, "RA_OF_ASC_NODE": 16.8358, "ARG_OF_PERICENTER": 140.2127, "MEAN_ANOMALY": 245.8061, "EPHEMERIS_TYPE": 0, "CLASSIFICATION_TYPE": "U", "NORAD_CAT_ID": 19070, "ELEMENT_SET_NO": 999, "REV_AT_EPOCH": 82443, "BSTAR": 0.00016493, "MEAN_MOTION_DOT": 9.2e-07, "MEAN_MOTION_DDOT": 0}, "tle": {"line1": "1 19070U 88033A   25361.06117904  .00000092  00000+0  16493-3 0  9990", "line2": "2 19070  90.3203  16.8358 0190612 140.2127 245.8061 13.27789432824436"}}, "geometry": {"type": "Point", "coordinates": [16.81732326792166, 4.943340985913207]}}, {"type": "Feature", "properties": {"norad_id": 19071, "name": "OSCAR 32", "group": "nnss", "lat": 54.24869183367975, "lon": -162.5763236335582, "alt_km": 1006.7622746129655, "timestamp": "2025-12-27T08:36:18.650945+00:00", "meta": {"OBJECT_NAME": "OSCAR 32", "OBJECT_ID": "1988-033B", "EPOCH": "2025-12-27T02:53:40.552800", "MEAN_MOTION": 13.27956077, "ECCENTRICITY": 0.0189346, "INCLINATION": 90.3208, "RA_OF_ASC_NODE": 16.9704, "ARG_OF_PERICENTER": 126.9859, "MEAN_ANOMALY": 301.8778, "EPHEMERIS_TYPE": 0, "CLASSIFICATION_TYPE": "U", "NORAD_CAT_ID": 19071, "ELEMENT_SET_NO": 999, "REV_AT_EPOCH": 82456, "BSTAR": 0.000144, "MEAN_MOTION_DOT": 8.2e-07, "MEAN_MOTION_DDOT": 0}, "tle": {"line1": "1 19071U 88033B   25361.12060825  .00000082  00000+0  14400-3 0  9992", "line2": "2 19071  90.3208  16.9704 0189346 126.9859 301.8778 13.27956077824566"}}, "geometry": {"type": "Point", "coordinates": [-162.5763236335582, 54.24869183367975]}}, {"type": "Feature", "properties": {"norad_id": 19223, "name": "NOVA 2", "group": "nnss", "lat": 59.49564298220155, "lon": 78.27733465396241, "alt_km": 1165.1820464911698, "timestamp": "2025-12-27T08:36:18.650956+00:00", "meta": {"OBJECT_NAME": "NOVA 2", "OBJECT_ID": "1988-052A", "EPOCH": "2025-12-27T04:56:26.311776", "MEAN_MOTION": 13.22937732, "ECCENTRICITY": 0.0029374, "INCLINATION": 89.9862, "RA_OF_ASC_NODE": 78.2541, "ARG_OF_PERICENTER": 336.6486, "MEAN_ANOMALY": 75.7931, "EPHEMERIS_TYPE": 0, "CLASSIFICATION_TYPE": "U", "NORAD_CAT_ID": 19223, "ELEMENT_SET_NO": 999, "REV_AT_EPOCH": 81139, "BSTAR": 0.00015382, "MEAN_MOTION_DOT": 7.3e-07, "MEAN_MOTION_DDOT": 0}, "tle": {"line1": "1 19223U 88052A   25361.20586009  .00000073  00000+0  15382-3 0  9998", "line2": "2 19223  89.9862  78.2541 0029374 336.6486  75.7931 13.22937732811392"}}, "geometry": {"type": "Point", "coordinates": [78.27733465396241, 59.49564298220155]}}, {"type": "Feature", "properties": {"norad_id": 19419, "name": "OSCAR 25", "group": "nnss", "lat": 89.1215512497825, "lon": 18.097981152277736, "alt_km": 1121.0450166681003, "timestamp": "2025-12-27T08:36:18.650966+00:00", "meta": {"OBJECT_NAME": "OSCAR 25", "OBJECT_ID": "1988-074A", "EPOCH": "2025-12-27T03:08:34.259712", "MEAN_MOTION": 13.42625944, "ECCENTRICITY": 0.0095366, "INCLINATION": 90.0336, "RA_OF_ASC_NODE": 20.2904, "ARG_OF_PERICENTER": 204.2699, "MEAN_ANOMALY": 226.4208, "EPHEMERIS_TYPE": 0, "CLASSIFICATION_TYPE": "U", "NORAD_CAT_ID": 19419, "ELEMENT_SET_NO": 999, "REV_AT_EPOCH": 82833, "BSTAR": 0.00015107, "MEAN_MOTION_DOT": 9.7e-07, "MEAN_MOTION_DDOT": 0}, "tle": {"line1": "1 19419U 88074A   25361.13095208  .00000097  00000+0  15107-3 0  9998", "line2": "2 19419  90.0336  20.2904 0095366 204.2699 226.4208 13.42625944828333"}}, "geometry": {"type": "Point", "coordinates": [18.097981152277736, 89.1215512497825]}}, {"type": "Feature", "properties": {"norad_id": 19420, "name": "OSCAR 31", "group": "nnss", "lat": -27.489911933617748, "lon": 20.662087717663287, "alt_km": 1154.548189583299, "timestamp": "2025-12-27T08:36:18.650976+00:00", "meta": {"OBJECT_NAME": "OSCAR 31", "OBJECT_ID": "1988-074B", "EPOCH": "2025-12-27T01:42:52.099776", "MEAN_MOTION": 13.42586921, "ECCENTRICITY": 0.0093766, "INCLINATION": 90.0353, "RA_OF_ASC_NODE": 20.6427, "ARG_OF_PERICENTER": 198.5933, "MEAN_ANOMALY": 186.3703, "EPHEMERIS_TYPE": 0, "CLASSIFICATION_TYPE": "U", "NORAD_CAT_ID": 19420, "ELEMENT_SET_NO": 999, "REV_AT_EPOCH": 82843, "BSTAR": 0.00012667, "MEAN_MOTION_DOT": 8.3e-07, "MEAN_MOTION_DDOT": 0}, "tle": {"line1": "1 19420U 88074B   25361.07143634  .00000083  00000+0  12667-3 0  9993", "line2": "2 19420  90.0353  20.6427 0093766 198.5933 186.3703 13.42586921828432"}}, "geometry": {"type": "Point", "coordinates": [20.662087717663287, -27.489911933617748]}}]}